CHINASAT 1C (ZX 1C)     
1 41103U 15073A   23004.18244716 -.00000111  00000+0  00000+0 0  9999
2 41103   3.8927  83.2005 0002070 166.8992 357.3852  1.00270614 26022
ELEKTRO-L 2             
1 41105U 15074A   23005.38337188 -.00000107  00000+0  00000+0 0  9996
2 41105   3.4957  85.7682 0002411 160.7367 341.7393  1.00270665 25896
COSMOS 2513             
1 41121U 15075A   23005.40219951 -.00000126  00000+0  00000+0 0  9996
2 41121   0.0704 108.6786 0003980 162.2290  58.8606  1.00270589 25901
EXPRESS-AMU1            
1 41191U 15082A   23005.53686941  .00000168  00000+0  00000+0 0  9997
2 41191   0.0156 340.3336 0002980 308.6379  45.2760  1.00274222 25648
GAOFEN 4                
1 41194U 15083A   23005.55072865 -.00000323  00000+0  00000+0 0  9991
2 41194   0.1083 212.9313 0002231  76.6061 119.4120  1.00271779 25906
BELINTERSAT-1           
1 41238U 16001A   23005.53992019  .00000119  00000+0  00000+0 0  9993
2 41238   0.0301 111.7488 0001943 107.9729 131.0133  1.00269344 25611
IRNSS-1E                
1 41241U 16003A   23004.61957963 -.00000316  00000+0  00000+0 0  9996
2 41241  30.4295  81.5061 0022113 187.1958 170.0885  1.00277276 25442
EUTELSAT 9B             
1 41310U 16005A   23005.53137802  .00000074  00000+0  00000+0 0  9999
2 41310   0.0409  62.9903 0005357 206.8216  35.3147  1.00271965 25492
SES-9                   
1 41380U 16013A   23004.59215781 -.00000332  00000+0  00000+0 0  9991
2 41380   0.0273 303.7636 0000608  48.4342  73.2033  1.00269379 24806
EUTELSAT 65 WEST A      
1 41382U 16014A   23005.17435814 -.00000263  00000+0  00000+0 0  9993
2 41382   0.0658 323.8637 0002272 316.2406 181.9418  1.00268967 24924
IRNSS-1F                
1 41384U 16015A   23005.53617209  .00000171  00000+0  00000+0 0  9993
2 41384   2.4786 142.8722 0022235 179.7069   7.6953  1.00274340 25040
BEIDOU IGSO-6           
1 41434U 16021A   23005.49878910 -.00000153  00000+0  00000+0 0  9990
2 41434  58.3938  50.7531 0049599 222.6161 106.4294  1.00286335 24854
IRNSS-1G                
1 41469U 16027A   23005.55552271 -.00000323  00000+0  00000+0 0  9999
2 41469   2.3902 145.1902 0002996 253.7053  35.5129  1.00272808 24554
JCSAT-2B                
1 41471U 16028A   23005.57132649 -.00000153  00000+0  00000+0 0  9999
2 41471   0.0184  21.7099 0001273 260.6243 182.2177  1.00271106 24468
THAICOM 8               
1 41552U 16031A   23005.54532441 -.00000110  00000+0  00000+0 0  9997
2 41552   0.0624  50.7132 0004186 268.9716  60.0161  1.00273698 24092
INTELSAT 31 (IS-31)     
1 41581U 16035A   23005.50668390 -.00000138  00000+0  00000+0 0  9992
2 41581   0.0129 309.5221 0002629 255.5921 347.0554  1.00270528 24079
BEIDOU-2 G7             
1 41586U 16037A   23005.55168747 -.00000343  00000+0  00000+0 0  9993
2 41586   1.8318  70.1442 0007683 343.4506   0.3458  1.00266685 24161
ABS-2A (MONGOLSAT-1)    
1 41588U 16038A   23005.54453993 -.00000071  00000+0  00000+0 0  9993
2 41588   0.0053  73.6624 0001344 114.8918 187.0527  1.00268897 24072
EUTELSAT 117 WEST B     
1 41589U 16038B   23005.54632687  .00000001  00000+0  00000+0 0  9995
2 41589   0.0118 162.2661 0000349 275.3878 106.8913  1.00274281 24086
BRISAT                  
1 41591U 16039A   23005.25327278 -.00000184  00000+0  00000+0 0  9997
2 41591   0.0216  23.6776 0002297 256.2704  66.3174  1.00269255 23987
ECHOSTAR 18             
1 41592U 16039B   23005.33514449 -.00000269  00000+0  00000+0 0  9999
2 41592   0.0282  39.1792 0001793 252.7733 232.0191  1.00269949 24009
MUOS-5                  
1 41622U 16041A   23005.55370150 -.00000128  00000+0  00000+0 0  9993
2 41622   5.1368 299.4234 0196049 242.1223  17.6805  1.00272366 24468
TIANTONG-1 1            
1 41725U 16048A   23005.41993615 -.00000306  00000+0  00000+0 0  9994
2 41725   2.2542   7.6493 0007972 321.8765  27.7877  1.00269196 23649
JCSAT-16                
1 41729U 16050A   23005.55396532 -.00000241  00000+0  00000+0 0  9999
2 41729   0.0585  85.4242 0004232 190.9033 120.9726  1.00270911 23445
USA 270                 
1 41744U 16052A   23003.40887725 -.00000114  00000+0  00000+0 0  9998
2 41744   0.9591  93.3983 0000700 285.3458  26.8205  1.00389908  6101
USA 271                 
1 41745U 16052B   23003.21091020 -.00000135  00000+0  00000+0 0  9996
2 41745   0.9253  93.4032 0000418 136.1385  33.0249  1.00143319  6091
INTELSAT 36 (IS-36)     
1 41747U 16053A   23005.39984605 -.00000012  00000+0  00000+0 0  9994
2 41747   0.0105  24.6285 0001296 326.7438 325.7927  1.00270379 23323
INTELSAT 33E (IS-33E)   
1 41748U 16053B   23005.54166348  .00000062  00000+0  00000+0 0  9992
2 41748   0.0394 290.4486 0001888 333.1730  96.2136  1.00272382 23625
INSAT-3DR               
1 41752U 16054A   23005.54445277 -.00000065  00000+0  00000+0 0  9993
2 41752   0.0577  93.6329 0014175 178.3845 102.8488  1.00271821 23194
GSAT-18                 
1 41793U 16060A   23005.29424263 -.00000065  00000+0  00000+0 0  9999
2 41793   0.0316  85.9849 0002503 196.5340   2.0310  1.00272594 22917
SKY MUSTER 2 (NBN1B)    
1 41794U 16060B   23005.57132649 -.00000232  00000+0  00000+0 0  9991
2 41794   0.0229  24.5124 0001979 271.3034 159.5718  1.00267941 22903
HIMAWARI-9              
1 41836U 16064A   23005.55770184 -.00000263  00000+0  00000+0 0  9996
2 41836   0.0411 208.3851 0001622 113.8390 124.1679  1.00270649 22567
SHIJIAN-17 (SJ-17)      
1 41838U 16065A   23005.56692712 -.00000253  00000+0  00000+0 0  9999
2 41838   2.5387  87.4438 0004155 253.2683  62.4168  1.00268266 22584
GOES 16                 
1 41866U 16071A   23005.42550368 -.00000235  00000+0  00000+0 0  9992
2 41866   0.0808 250.6210 0000980  59.5833 232.5319  1.00271205 22499
TIANLIAN 1-04           
1 41869U 16072A   23005.53355793  .00000043  00000+0  00000+0 0  9999
2 41869   0.0410  80.2623 0021184  55.7026 337.7663  1.00269749 22699
WGS F8 (USA 272)        
1 41879U 16075A   23004.84224597 -.00000190  00000+0  00000+0 0  9997
2 41879   0.0168  61.4840 0000231 198.2992 297.3813  1.00274188 22294
FENGYUN 4A              
1 41882U 16077A   23004.22340957 -.00000318  00000+0  00000+0 0  9996
2 41882   0.0414  39.8678 0005273  13.9822 234.7960  1.00275745 22340
ECHOSTAR 19             
1 41893U 16079A   23005.42541418 -.00000126  00000+0  00000+0 0  9995
2 41893   0.0179  38.0841 0001862 254.9713 227.7369  1.00274527 22093
JCSAT-110A (JCSAT-15)   
1 41903U 16082A   23005.55160029 -.00000338  00000+0  00000+0 0  9995
2 41903   0.0182  17.3342 0001639 265.0290 131.1479  1.00270733 22130
STAR ONE D1             
1 41904U 16082B   23005.51620571 -.00000198  00000+0  00000+0 0  9999
2 41904   0.0414  70.8373 0001936 229.0706 266.8066  1.00266779 22154
TJS-2                   
1 41911U 17001A   23005.55149399  .00000006  00000+0  00000+0 0  9994
2 41911   0.0672  56.0131 0004868 175.4474 138.4358  1.00273083 22108
SBIRS GEO-4 (USA 273)   
1 41937U 17004A   23005.56021778  .00000145  00000+0  00000+0 0  9990
2 41937   1.9708 324.3690 0002620 314.5682 228.2190  1.00272203 21988
HISPASAT 36W-1          
1 41942U 17006A   23005.43105038 -.00000232  00000+0  00000+0 0  9994
2 41942   0.0134  35.9246 0001027 255.3091 292.7103  1.00269543 21607
TELKOM 3S               
1 41944U 17007A   23005.55353344 -.00000350  00000+0  00000+0 0  9996
2 41944   0.0242  31.6146 0002624 246.5411 143.9919  1.00268107 21510
INTELSAT 32E (IS-32E)   
1 41945U 17007B   23005.33643340 -.00000256  00000+0  00000+0 0  9996
2 41945   0.0124  62.8996 0000166 172.2281 307.4566  1.00269468 21615
ECHOSTAR 23             
1 42070U 17014A   23005.54077238 -.00000044  00000+0  00000+0 0  9999
2 42070   0.0038 102.6433 0002012 179.1437 267.8470  1.00273119 21328
WGS F9 (USA 275)        
1 42075U 17016A   23005.38372053 -.00000084  00000+0  00000+0 0  9995
2 42075   0.0118  75.8424 0001974  58.9728  96.0815  1.00267723 21279
SES-10                  
1 42432U 17017A   23005.53118903 -.00000260  00000+0  00000+0 0  9998
2 42432   0.0224  59.6099 0003014 222.1023 307.4588  1.00268959 21124
CHINASAT 16 (SJ-13)     
1 42662U 17018A   23004.04516231 -.00000340  00000+0  00000+0 0  9994
2 42662   0.0768  89.2907 0007645 163.5961 337.2602  1.00269052 21103
KOREASAT 7              
1 42691U 17023A   23005.55273344 -.00000349  00000+0  00000+0 0  9993
2 42691   0.0239  26.4403 0001366 224.5659 168.7579  1.00271017 20752
SGDC                    
1 42692U 17023B   23004.91824431 -.00000236  00000+0  00000+0 0  9997
2 42692   0.0134  17.4318 0002447 269.6120  72.9181  1.00271311 20792
GSAT-9                  
1 42695U 17024A   23005.55396532 -.00000273  00000+0  00000+0 0  9999
2 42695   0.0357 103.4730 0002223 165.4972 132.5942  1.00267381 20684
INMARSAT 5-F4           
1 42698U 17025A   23005.54096617  .00000088  00000+0  00000+0 0  9996
2 42698   0.0293  42.3129 0000679 254.2095  59.5783  1.00270805 20658
SES-15                  
1 42709U 17026A   23005.33547359  .00000073  00000+0  00000+0 0  9995
2 42709   0.0164   1.8309 0000576 277.6209 176.8205  1.00267793 21521
QZS-2 (MICHIBIKI-2)     
1 42738U 17028A   23005.55622003 -.00000143  00000+0  00000+0 0  9992
2 42738  41.4363 261.3055 0755128 269.6560 275.2340  1.00280699 20528
VIASAT-2                
1 42740U 17029A   23005.52876726 -.00000252  00000+0  00000+0 0  9997
2 42740   0.0189 302.9366 0000363 330.8238 311.5369  1.00272704 20569
EUTELSAT 172B           
1 42741U 17029B   23005.55674611  .00000007  00000+0  00000+0 0  9997
2 42741   0.0561 162.9209 0000201 124.9468 189.4261  1.00271816 21109
GSAT-19                 
1 42747U 17031A   23005.29563240  .00000138  00000+0  00000+0 0  9997
2 42747   0.0485  95.6204 0000053 125.5451  37.7218  1.00272474 20513
ECHOSTAR 21             
1 42749U 17032A   23005.53172668  .00000083  00000+0  00000+0 0  9996
2 42749   3.5613 312.2118 0002724 319.0883  35.2338  1.00270509 20483
